NORAD_CAT_ID,OBJECT_NAME,OBJECT_TYPE,EPOCH,MEAN_MOTION,ECCENTRICITY,INCLINATION,RA_OF_ASC_NODE,ARG_OF_PERICENTER,MEAN_ANOMALY,BSTAR,MEAN_MOTION_DOT,MEAN_MOTION_DDOT,TLE_LINE0,TLE_LINE1,TLE_LINE2,SEMIMAJOR_AXIS,PERIOD,APOGEE,PERIGEE,DECAYED
51772.0,STARLINK-3623,PAYLOAD,2023-03-29 09:35:59,15.08848408,0.0001436,53.2134,130.7685,118.0361,242.0776,0.00010519,1.387e-05,0.0,0 STARLINK-3623,1 51772U 22017E   23088.39999789  .00001387  00000-0  10519-3 0  9996,2 51772  53.2134 130.7685 0001436 118.0361 242.0776 15.08848408 60118,6917.855,95.437,540.713,538.726,0.0
51772.0,STARLINK-3623,PAYLOAD,2023-03-30 03:05:14,15.08836587,0.0001325,53.2159,127.5014,100.8962,259.2179,0.00011722,1.578e-05,0.0,0 STARLINK-3623,1 51772U 22017E   23089.12864568  .00001578  00000-0  11722-3 0  9993,2 51772  53.2159 127.5014 0001325 100.8962 259.2179 15.08836587 61739,6917.891,95.438,540.672,538.839,0.0
51772.0,STARLINK-3623,PAYLOAD,2023-03-30 09:26:47,15.08835542,0.000135,53.2154,126.3119,103.9595,256.1548,-5.1663e-05,-1.11e-05,0.0,0 STARLINK-3623,1 51772U 22017E   23089.39360576 -.00001110  00000-0 -51663-4 0  9995,2 51772  53.2154 126.3119 0001350 103.9595 256.1548 15.08835542 60264,6917.894,95.438,540.693,538.825,0.0
51772.0,STARLINK-3623,PAYLOAD,2023-03-31 09:17:34,15.08844935,0.0001405,53.2157,121.8514,105.1318,254.9829,0.00013693,1.892e-05,0.0,0 STARLINK-3623,1 51772U 22017E   23090.38720269  .00001892  00000-0  13693-3 0  9990,2 51772  53.2157 121.8514 0001405 105.1318 254.9829 15.08844935 61922,6917.865,95.437,540.702,538.758,0.0
51772.0,STARLINK-3623,PAYLOAD,2023-04-01 02:46:49,15.08836422,0.0001329,53.2165,118.5814,95.6197,264.4947,9.4868e-05,1.222e-05,0.0,0 STARLINK-3623,1 51772U 22017E   23091.11584832  .00001222  00000-0  94868-4 0  9997,2 51772  53.2165 118.5814 0001329  95.6197 264.4947 15.08836422 62032,6917.891,95.438,540.676,538.837,0.0
51772.0,STARLINK-3623,PAYLOAD,2023-04-01 10:43:44,15.08840145,0.0001354,53.2165,117.0946,95.2387,264.876,0.00012435,1.692e-05,0.0,0 STARLINK-3623,1 51772U 22017E   23091.44704680  .00001692  00000-0  12435-3 0  9998,2 51772  53.2165 117.0946 0001354  95.2387 264.8760 15.08840145 60578,6917.88,95.438,540.682,538.808,0.0
51772.0,STARLINK-3623,PAYLOAD,2023-04-01 18:40:40,15.08840041,0.0001433,53.2166,115.6074,102.7146,257.4006,7.1349e-05,8.48e-06,0.0,0 STARLINK-3623,1 51772U 22017E   23091.77824767  .00000848  00000-0  71349-4 0  9995,2 51772  53.2166 115.6074 0001433 102.7146 257.4006 15.08840041 60622,6917.88,95.438,540.737,538.754,0.0
51772.0,STARLINK-3623,PAYLOAD,2023-04-02 07:23:45,15.08838532,0.0001447,53.2167,113.2281,88.2147,271.9011,-8.4159e-07,-3.01e-06,0.0,0 STARLINK-3623,1 51772U 22017E   23092.30816923 -.00000301  00000-0 -84159-6 0  9991,2 51772  53.2167 113.2281 0001447  88.2147 271.9011 15.08838532 62217,6917.885,95.438,540.751,538.749,0.0
51772.0,STARLINK-3623,PAYLOAD,2023-04-02 10:34:32,15.08843497,0.0001283,53.2164,112.632,84.6067,275.5071,3.3549e-05,2.46e-06,0.0,0 STARLINK-3623,1 51772U 22017E   23092.44064912  .00000246  00000-0  33549-4 0  9990,2 51772  53.2164 112.6320 0001283  84.6067 275.5071 15.08843497 60726,6917.87,95.437,540.622,538.847,0.0
51772.0,STARLINK-3623,PAYLOAD,2023-04-03 07:14:32,15.08841152,0.0001303,53.2163,108.7661,81.5159,278.5981,6.7333e-05,7.84e-06,0.0,0 STARLINK-3623,1 51772U 22017E   23093.30177050  .00000784  00000-0  67333-4 0  9999,2 51772  53.2163 108.7661 0001303  81.5159 278.5981 15.08841152 60853,6917.877,95.437,540.643,538.84,0.0
51772.0,STARLINK-3623,PAYLOAD,2023-04-03 18:22:14,15.08843858,0.0001364,53.2172,106.6867,85.1153,274.9994,9.3614e-05,1.202e-05,0.0,0 STARLINK-3623,1 51772U 22017E   23093.76544792  .00001202  00000-0  93614-4 0  9997,2 51772  53.2172 106.6867 0001364  85.1153 274.9994 15.08843858 62434,6917.869,95.437,540.677,538.79,0.0
51772.0,STARLINK-3623,PAYLOAD,2023-04-04 10:16:05,15.08850745,0.0001232,53.2151,103.7112,91.2492,268.8641,0.000158,2.228e-05,0.0,0 STARLINK-3623,1 51772U 22017E   23094.42784029  .00002228  00000-0  15800-3 0  9999,2 51772  53.2151 103.7112 0001232  91.2492 268.8641 15.08850745 61028,6917.848,95.437,540.565,538.86,0.0
51772.0,STARLINK-3623,PAYLOAD,2023-04-05 05:20:44,15.08837315,0.0001384,53.2157,100.1397,112.9713,247.1425,9.2718e-06,-1.4e-06,0.0,0 STARLINK-3623,1 51772U 22017E   23095.22273203 -.00000140  00000-0  92718-5 0  9992,2 51772  53.2157 100.1397 0001384 112.9713 247.1425 15.08837315 62653,6917.889,95.438,540.711,538.796,0.0
51772.0,STARLINK-3623,PAYLOAD,2023-04-05 06:56:07,15.08835967,0.0001377,53.2156,99.8438,102.4099,257.7047,2.2816e-05,7.5e-07,0.0,0 STARLINK-3623,1 51772U 22017E   23095.28897352  .00000075  00000-0  22816-4 0  9992,2 51772  53.2156  99.8438 0001377 102.4099 257.7047 15.08835967 61157,6917.893,95.438,540.71,538.805,0.0
51772.0,STARLINK-3623,PAYLOAD,2023-04-06 06:46:53,15.08850824,0.0001187,53.2154,95.384,80.1101,280.0025,1.6695e-05,-2.2e-07,0.0,0 STARLINK-3623,1 51772U 22017E   23096.28256484 -.00000022  00000-0  16695-4 0  9999,2 51772  53.2154  95.3840 0001187  80.1101 280.0025 15.08850824 62816,6917.847,95.437,540.533,538.891,0.0
51772.0,STARLINK-3623,PAYLOAD,2023-04-06 16:19:12,15.08843791,0.0001184,53.2158,93.6009,87.0799,273.0328,-4.7587e-06,-3.64e-06,0.0,0 STARLINK-3623,1 51772U 22017E   23096.68000868 -.00000364  00000-0 -47587-5 0  9991,2 51772  53.2158  93.6009 0001184  87.0799 273.0328 15.08843791 62873,6917.869,95.437,540.553,538.915,0.0
51772.0,STARLINK-3623,PAYLOAD,2023-04-07 09:48:27,15.0883957,0.0001352,53.2161,90.3305,84.5199,275.5947,0.00013166,1.808e-05,0.0,0 STARLINK-3623,1 51772U 22017E   23097.40865158  .00001808  00000-0  13166-3 0  9999,2 51772  53.2161  90.3305 0001352  84.5199 275.5947 15.08839570 61472,6917.882,95.438,540.682,538.811,0.0
51772.0,STARLINK-3623,PAYLOAD,2023-04-07 16:10:00,15.08835732,0.0001277,53.2156,89.1406,89.17,270.9438,7.4695e-05,9.01e-06,0.0,0 STARLINK-3623,1 51772U 22017E   23097.67361611  .00000901  00000-0  74695-4 0  9991,2 51772  53.2156  89.1406 0001277  89.1700 270.9438 15.08835732 63022,6917.893,95.438,540.642,538.875,0.0
51772.0,STARLINK-3623,PAYLOAD,2023-04-08 06:28:28,15.08842134,0.0001367,53.2171,86.4662,97.3481,262.7666,5.2889e-05,5.54e-06,0.0,0 STARLINK-3623,1 51772U 22017E   23098.26977353  .00000554  00000-0  52889-4 0  9998,2 51772  53.2171  86.4662 0001367  97.3481 262.7666 15.08842134 61608,6917.874,95.437,540.685,538.793,0.0
51772.0,STARLINK-3623,PAYLOAD,2023-04-09 04:43:52,15.08837173,0.0001378,53.2176,82.3033,101.478,258.6367,5.9276e-05,6.56e-06,0.0,0 STARLINK-3623,1 51772U 22017E   23099.19713823  .00000656  00000-0  59276-4 0  9991,2 51772  53.2176  82.3033 0001378 101.4780 258.6367 15.08837173 63253,6917.889,95.438,540.707,538.801,0.0
51772.0,STARLINK-3623,PAYLOAD,2023-04-09 06:19:15,15.08838615,0.0001334,53.2169,82.004,99.3713,260.743,5.7397e-05,6.26e-06,0.0,0 STARLINK-3623,1 51772U 22017E   23099.26337721  .00000626  00000-0  57397-4 0  9997,2 51772  53.2169  82.0040 0001334  99.3713 260.7430 15.08838615 61753,6917.885,95.438,540.672,538.827,0.0
51772.0,STARLINK-3623,PAYLOAD,2023-04-09 15:51:34,15.08842326,0.0001265,53.2169,80.2197,91.8131,268.3006,6.5886e-05,7.61e-06,0.0,0 STARLINK-3623,1 51772U 22017E   23099.66081463  .00000761  00000-0  65886-4 0  9992,2 51772  53.2169  80.2197 0001265  91.8131 268.3006 15.08842326 61814,6917.873,95.437,540.613,538.863,0.0
51772.0,STARLINK-3623,PAYLOAD,2023-04-10 07:45:23,15.08865845,0.0001126,53.2179,77.2478,92.4111,267.701,0.00027659,4.12e-05,0.0,0 STARLINK-3623,1 51772U 22017E   23100.32319350  .00004120  00000-0  27659-3 0  9995,2 51772  53.2179  77.2478 0001126  92.4111 267.7010 15.08865845 63422,6917.801,95.436,540.445,538.887,0.0
51772.0,STARLINK-3623,PAYLOAD,2023-04-10 22:03:53,15.08838829,0.0001381,53.216,74.5716,82.3536,277.7612,0.00011598,1.558e-05,0.0,0 STARLINK-3623,1 51772U 22017E   23100.91937366  .00001558  00000-0  11598-3 0  9990,2 51772  53.2160  74.5716 0001381  82.3536 277.7612 15.08838829 63510,6917.884,95.438,540.704,538.794,0.0
51772.0,STARLINK-3623,PAYLOAD,2023-04-11 07:36:12,15.08838804,0.0001139,53.2171,72.7846,91.9628,268.1494,5.4422e-05,5.78e-06,0.0,0 STARLINK-3623,1 51772U 22017E   23101.31681508  .00000578  00000-0  54422-4 0  9994,2 51772  53.2171  72.7846 0001139  91.9628 268.1494 15.08838804 62069,6917.884,95.438,540.537,538.961,0.0
51772.0,STARLINK-3623,PAYLOAD,2023-04-12 04:16:13,15.08845094,0.000121,53.2167,68.9175,101.4512,258.6616,-6.1956e-05,-1.274e-05,0.0,0 STARLINK-3623,1 51772U 22017E   23102.17793458 -.00001274  00000-0 -61956-4 0  9993,2 51772  53.2167  68.9175 0001210 101.4512 258.6616 15.08845094 63706,6917.865,95.437,540.567,538.893,0.0
51772.0,STARLINK-3623,PAYLOAD,2023-04-12 07:26:59,15.08847335,0.0001174,53.2169,68.3226,99.2976,260.8149,-7.8605e-05,-1.539e-05,0.0,0 STARLINK-3623,1 51772U 22017E   23102.31041341 -.00001539  00000-0 -78605-4 0  9999,2 51772  53.2169  68.3226 0001174  99.2976 260.8149 15.08847335 62217,6917.858,95.437,540.535,538.911,0.0
51772.0,STARLINK-3623,PAYLOAD,2023-04-13 07:17:47,15.08842939,0.0001204,53.2173,63.8613,98.8133,261.2996,0.00015599,2.196e-05,0.0,0 STARLINK-3623,1 51772U 22017E   23103.30401632  .00002196  00000-0  15599-3 0  9992,2 51772  53.2173  63.8613 0001204  98.8133 261.2996 15.08842939 62362,6917.871,95.437,540.569,538.903,0.0
51772.0,STARLINK-3623,PAYLOAD,2023-04-14 05:33:10,15.08847409,0.000119,53.2169,59.7,102.8786,257.2339,0.00018,2.579e-05,0.0,0 STARLINK-3623,1 51772U 22017E   23104.23137509  .00002579  00000-0  18000-3 0  9999,2 51772  53.2169  59.7000 0001190 102.8786 257.2339 15.08847409 62504,6917.858,95.437,540.546,538.9,0.0
51772.0,STARLINK-3623,PAYLOAD,2023-04-15 00:37:48,15.08839236,0.0001263,53.2178,56.1331,106.0624,254.0507,-5.0217e-05,-1.087e-05,0.0,0 STARLINK-3623,1 51772U 22017E   23105.02625913 -.00001087  00000-0 -50217-4 0  9990,2 51772  53.2178  56.1331 0001263 106.0624 254.0507 15.08839236 64132,6917.883,95.438,540.621,538.874,0.0
